{"type": "FeatureCollection", "features": [ {"type": "Feature", "properties": {"norad_id": 34077, "name": "IRIDIUM 33 DEB", "group": "iridium-33-debris", "lat": 64.76715110849824, "lon": -132.96560808766168, "alt_km": 667.2685347875304, "timestamp": "2025-12-05T09:41:19.516597+00:00", "meta": {"OBJECT_NAME": "IRIDIUM 33 DEB", "OBJECT_ID": "1997-051CL", "EPOCH": "2025-12-04T17:18:42.892128", "MEAN_MOTION": 14.64636283, "ECCENTRICITY": 0.001086, "INCLINATION": 86.3874, "RA_OF_ASC_NODE": 55.0389, "ARG_OF_PERICENTER": 64.6167, "MEAN_ANOMALY": 54.6109, "EPHEMERIS_TYPE": 0, "CLASSIFICATION_TYPE": "U", "NORAD_CAT_ID": 34077, "ELEMENT_SET_NO": 999, "REV_AT_EPOCH": 88215, "BSTAR": 0.0042105, "MEAN_MOTION_DOT": 0.00022464, "MEAN_MOTION_DDOT": 0}, "tle": {"line1": "1 34077U 97051CL  25338.72132977  .00022464  00000+0  42105-2 0  9993", "line2": "2 34077  86.3874  55.0389 0010860  64.6167  54.6109 14.64636283882156"}}, "geometry": {"type": "Point", "coordinates": [-132.96560808766168, 64.76715110849824]}}, {"type": "Feature", "properties": {"norad_id": 34079, "name": "IRIDIUM 33 DEB", "group": "iridium-33-debris", "lat": -24.721569454796665, "lon": 10.327001611896486, "alt_km": 622.1356852299623, "timestamp": "2025-12-05T09:41:19.516608+00:00", "meta": {"OBJECT_NAME": "IRIDIUM 33 DEB", "OBJECT_ID": "1997-051CN", "EPOCH": "2025-12-04T14:55:55.555392", "MEAN_MOTION": 14.83206685, "ECCENTRICITY": 0.0006547, "INCLINATION": 86.3776, "RA_OF_ASC_NODE": 12.3535, "ARG_OF_PERICENTER": 33.0784, "MEAN_ANOMALY": 92.0163, "EPHEMERIS_TYPE": 0, "CLASSIFICATION_TYPE": "U", "NORAD_CAT_ID": 34079, "ELEMENT_SET_NO": 999, "REV_AT_EPOCH": 88857, "BSTAR": 0.0036896, "MEAN_MOTION_DOT": 0.00030258, "MEAN_MOTION_DDOT": 0}, "tle": {"line1": "1 34079U 97051CN  25338.62217078  .00030258  00000+0  36896-2 0  9990", "line2": "2 34079  86.3776  12.3535 0006547  33.0784  92.0163 14.83206685888578"}}, "geometry": {"type": "Point", "coordinates": [10.327001611896486, -24.721569454796665]}}, {"type": "Feature", "properties": {"norad_id": 34088, "name": "IRIDIUM 33 DEB", "group": "iridium-33-debris", "lat": -42.863579248845134, "lon": -142.5432407798888, "alt_km": 598.5832347562982, "timestamp": "2025-12-05T09:41:19.516618+00:00", "meta": {"OBJECT_NAME": "IRIDIUM 33 DEB", "OBJECT_ID": "1997-051CX", "EPOCH": "2025-12-04T13:54:56.791872", "MEAN_MOTION": 14.90765151, "ECCENTRICITY": 0.0005164, "INCLINATION": 86.3855, "RA_OF_ASC_NODE": 34.4716, "ARG_OF_PERICENTER": 207.2916, "MEAN_ANOMALY": 276.8284, "EPHEMERIS_TYPE": 0, "CLASSIFICATION_TYPE": "U", "NORAD_CAT_ID": 34088, "ELEMENT_SET_NO": 999, "REV_AT_EPOCH": 88620, "BSTAR": 0.0061025, "MEAN_MOTION_DOT": 0.00060443, "MEAN_MOTION_DDOT": 0}, "tle": {"line1": "1 34088U 97051CX  25338.57982398  .00060443  00000+0  61025-2 0  9999", "line2": "2 34088  86.3855  34.4716 0005164 207.2916 276.8284 14.90765151886208"}}, "geometry": {"type": "Point", "coordinates": [-142.5432407798888, -42.863579248845134]}}, {"type": "Feature", "properties": {"norad_id": 34091, "name": "IRIDIUM 33 DEB", "group": "iridium-33-debris", "lat": -55.16332679957518, "lon": 64.91838683998515, "alt_km": 611.067424559209, "timestamp": "2025-12-05T09:41:19.516629+00:00", "meta": {"OBJECT_NAME": "IRIDIUM 33 DEB", "OBJECT_ID": "1997-051DA", "EPOCH": "2025-12-04T12:51:17.264736", "MEAN_MOTION": 14.80833294, "ECCENTRICITY": 0.0032938, "INCLINATION": 86.3424, "RA_OF_ASC_NODE": 70.5888, "ARG_OF_PERICENTER": 322.9542, "MEAN_ANOMALY": 36.9405, "EPHEMERIS_TYPE": 0, "CLASSIFICATION_TYPE": "U", "NORAD_CAT_ID": 34091, "ELEMENT_SET_NO": 999, "REV_AT_EPOCH": 87745, "BSTAR": 0.012051, "MEAN_MOTION_DOT": 0.00095005, "MEAN_MOTION_DDOT": 0}, "tle": {"line1": "1 34091U 97051DA  25338.53561649  .00095005  00000+0  12051-1 0  9997", "line2": "2 34091  86.3424  70.5888 0032938 322.9542  36.9405 14.80833294877454"}}, "geometry": {"type": "Point", "coordinates": [64.91838683998515, -55.16332679957518]}}, {"type": "Feature", "properties": {"norad_id": 34097, "name": "IRIDIUM 33 DEB", "group": "iridium-33-debris", "lat": -17.405428684608406, "lon": 3.4523644104505924, "alt_km": 737.4017653998362, "timestamp": "2025-12-05T09:41:19.516640+00:00", "meta": {"OBJECT_NAME": "IRIDIUM 33 DEB", "OBJECT_ID": "1997-051DG", "EPOCH": "2025-12-04T12:00:30.087072", "MEAN_MOTION": 14.34680478, "ECCENTRICITY": 0.008354, "INCLINATION": 86.2003, "RA_OF_ASC_NODE": 5.0446, "ARG_OF_PERICENTER": 28.9801, "MEAN_ANOMALY": 331.5995, "EPHEMERIS_TYPE": 0, "CLASSIFICATION_TYPE": "U", "NORAD_CAT_ID": 34097, "ELEMENT_SET_NO": 999, "REV_AT_EPOCH": 87001, "BSTAR": 0.0028898, "MEAN_MOTION_DOT": 8.526e-05, "MEAN_MOTION_DDOT": 0}, "tle": {"line1": "1 34097U 97051DG  25338.50034823  .00008526  00000+0  28898-2 0  9998", "line2": "2 34097  86.2003   5.0446 0083540  28.9801 331.5995 14.34680478870017"}}, "geometry": {"type": "Point", "coordinates": [3.4523644104505924, -17.405428684608406]}}, {"type": "Feature", "properties": {"norad_id": 34145, "name": "IRIDIUM 33 DEB", "group": "iridium-33-debris", "lat": 53.59045725066955, "lon": -19.050474456963148, "alt_km": 728.2617317744371, "timestamp": "2025-12-05T09:41:19.516650+00:00", "meta": {"OBJECT_NAME": "IRIDIUM 33 DEB", "OBJECT_ID": "1997-051DY", "EPOCH": "2025-12-04T05:07:56.080128", "MEAN_MOTION": 14.42196317, "ECCENTRICITY": 0.005535, "INCLINATION": 86.211, "RA_OF_ASC_NODE": 336.324, "ARG_OF_PERICENTER": 120.9354, "MEAN_ANOMALY": 239.7303, "EPHEMERIS_TYPE": 0, "CLASSIFICATION_TYPE": "U", "NORAD_CAT_ID": 34145, "ELEMENT_SET_NO": 999, "REV_AT_EPOCH": 87515, "BSTAR": 0.0021467, "MEAN_MOTION_DOT": 7.221e-05, "MEAN_MOTION_DDOT": 0}, "tle": {"line1": "1 34145U 97051DY  25338.21384352  .00007221  00000+0  21467-2 0  9991", "line2": "2 34145  86.2110 336.3240 0055350 120.9354 239.7303 14.42196317875151"}}, "geometry": {"type": "Point", "coordinates": [-19.050474456963148, 53.59045725066955]}}, {"type": "Feature", "properties": {"norad_id": 34146, "name": "IRIDIUM 33 DEB", "group": "iridium-33-debris", "lat": -53.610630774550835, "lon": 178.10208396627388, "alt_km": 718.8642739258585, "timestamp": "2025-12-05T09:41:19.516661+00:00", "meta": {"OBJECT_NAME": "IRIDIUM 33 DEB", "OBJECT_ID": "1997-051DZ", "EPOCH": "2025-12-04T13:18:05.700096", "MEAN_MOTION": 14.48959771, "ECCENTRICITY": 0.0025021, "INCLINATION": 86.2833, "RA_OF_ASC_NODE": 353.417, "ARG_OF_PERICENTER": 250.9245, "MEAN_ANOMALY": 234.6299, "EPHEMERIS_TYPE": 0, "CLASSIFICATION_TYPE": "U", "NORAD_CAT_ID": 34146, "ELEMENT_SET_NO": 999, "REV_AT_EPOCH": 87988, "BSTAR": 0.0021466, "MEAN_MOTION_DOT": 8.185e-05, "MEAN_MOTION_DDOT": 0}, "tle": {"line1": "1 34146U 97051DZ  25338.55423264  .00008185  00000+0  21466-2 0  9994", "line2": "2 34146  86.2833 353.4170 0025021 250.9245 234.6299 14.48959771879880"}}, "geometry": {"type": "Point", "coordinates": [178.10208396627388, -53.610630774550835]}}, {"type": "Feature", "properties": {"norad_id": 34159, "name": "IRIDIUM 33 DEB", "group": "iridium-33-debris", "lat": -45.970749714111776, "lon": -124.8465743888446, "alt_km": 769.6362087699299, "timestamp": "2025-12-05T09:41:19.516671+00:00", "meta": {"OBJECT_NAME": "IRIDIUM 33 DEB", "OBJECT_ID": "1997-051EN", "EPOCH": "2025-12-04T15:56:37.730112", "MEAN_MOTION": 14.38463354, "ECCENTRICITY": 0.0026377, "INCLINATION": 86.3518, "RA_OF_ASC_NODE": 51.6842, "ARG_OF_PERICENTER": 316.2134, "MEAN_ANOMALY": 43.6972, "EPHEMERIS_TYPE": 0, "CLASSIFICATION_TYPE": "U", "NORAD_CAT_ID": 34159, "ELEMENT_SET_NO": 999, "REV_AT_EPOCH": 87843, "BSTAR": 0.00077286, "MEAN_MOTION_DOT": 2.387e-05, "MEAN_MOTION_DDOT": 0}, "tle": {"line1": "1 34159U 97051EN  25338.66432558  .00002387  00000+0  77286-3 0  9996", "line2": "2 34159  86.3518  51.6842 0026377 316.2134  43.6972 14.38463354878438"}}, "geometry": {"type": "Point", "coordinates": [-124.8465743888446, -45.970749714111776]}}, {"type": "Feature", "properties": {"norad_id": 34350, "name": "IRIDIUM 33 DEB", "group": "iridium-33-debris", "lat": 72.60228075906062, "lon": 17.816961562279072, "alt_km": 732.5740239570341, "timestamp": "2025-12-05T09:41:19.516682+00:00", "meta": {"OBJECT_NAME": "IRIDIUM 33 DEB", "OBJECT_ID": "1997-051ES", "EPOCH": "2025-12-04T01:54:53.906976", "MEAN_MOTION": 14.45357099, "ECCENTRICITY": 0.00219337, "INCLINATION": 86.3281, "RA_OF_ASC_NODE": 6.5649, "ARG_OF_PERICENTER": 162.4763, "MEAN_ANOMALY": 226.5026, "EPHEMERIS_TYPE": 0, "CLASSIFICATION_TYPE": "U", "NORAD_CAT_ID": 34350, "ELEMENT_SET_NO": 999, "REV_AT_EPOCH": 88168, "BSTAR": 0.00057236591, "MEAN_MOTION_DOT": 2.036e-05, "MEAN_MOTION_DDOT": 0}, "tle": {"line1": "1 34350U 97051ES  25338.07979059  .00002036  00000+0  57237-3 0  9991", "line2": "2 34350  86.3281   6.5649 0021933 162.4763 226.5026 14.45357099881683"}}, "geometry": {"type": "Point", "coordinates": [17.816961562279072, 72.60228075906062]}}, {"type": "Feature", "properties": {"norad_id": 34366, "name": "IRIDIUM 33 DEB", "group": "iridium-33-debris", "lat": 6.252966828587298, "lon": -127.89492265749455, "alt_km": 699.743888420122, "timestamp": "2025-12-05T09:41:19.516692+00:00", "meta": {"OBJECT_NAME": "IRIDIUM 33 DEB", "OBJECT_ID": "1997-051FJ", "EPOCH": "2025-12-04T16:58:06.750048", "MEAN_MOTION": 14.53943221, "ECCENTRICITY": 0.0021835, "INCLINATION": 86.3708, "RA_OF_ASC_NODE": 52.8063, "ARG_OF_PERICENTER": 165.4652, "MEAN_ANOMALY": 323.8941, "EPHEMERIS_TYPE": 0, "CLASSIFICATION_TYPE": "U", "NORAD_CAT_ID": 34366, "ELEMENT_SET_NO": 999, "REV_AT_EPOCH": 88065, "BSTAR": 0.0028769, "MEAN_MOTION_DOT": 0.00012178, "MEAN_MOTION_DDOT": 0}, "tle": {"line1": "1 34366U 97051FJ  25338.70702257  .00012178  00000+0  28769-2 0  9997", "line2": "2 34366  86.3708  52.8063 0021835 165.4652 323.8941 14.53943221880659"}}, "geometry": {"type": "Point", "coordinates": [-127.89492265749455, 6.252966828587298]}}]}